[{"OBJECT_NAME":"HERMES-5","OBJECT_ID":"2025-052BQ","EPOCH":"2026-03-09T22:33:51.245280","MEAN_MOTION":15.26210393,"ECCENTRICITY":0.0006071,"INCLINATION":97.4082,"RA_OF_ASC_NODE":324.1247,"ARG_OF_PERICENTER":124.4334,"MEAN_ANOMALY":235.7479,"EPHEMERIS_TYPE":0,"CLASSIFICATION_TYPE":"U","NORAD_CAT_ID":63834,"ELEMENT_SET_NO":999,"REV_AT_EPOCH":5480,"BSTAR":0.00068450239,"MEAN_MOTION_DOT":0.00017673,"MEAN_MOTION_DDOT":0},{"OBJECT_NAME":"STARLINK-34141","OBJECT_ID":"2025-101AC","EPOCH":"2026-03-08T20:03:05.090976","MEAN_MOTION":15.27581531,"ECCENTRICITY":9.451e-5,"INCLINATION":42.9999,"RA_OF_ASC_NODE":2.8639,"ARG_OF_PERICENTER":285.9629,"MEAN_ANOMALY":74.1118,"EPHEMERIS_TYPE":0,"CLASSIFICATION_TYPE":"U","NORAD_CAT_ID":64020,"ELEMENT_SET_NO":999,"REV_AT_EPOCH":4692,"BSTAR":0.0010999891,"MEAN_MOTION_DOT":0.00030132,"MEAN_MOTION_DDOT":0}]
